[{"OBJECT_NAME":"STARLINK-32552","OBJECT_ID":"2024-225M","EPOCH":"2026-03-09T15:50:48.714720","MEAN_MOTION":14.98571867,"ECCENTRICITY":0.0006013,"INCLINATION":70.0041,"RA_OF_ASC_NODE":164.4162,"ARG_OF_PERICENTER":234.2276,"MEAN_ANOMALY":125.8325,"EPHEMERIS_TYPE":0,"CLASSIFICATION_TYPE":"U","NORAD_CAT_ID":62174,"ELEMENT_SET_NO":999,"REV_AT_EPOCH":6987,"BSTAR":0.0026247,"MEAN_MOTION_DOT":0.00031571,"MEAN_MOTION_DDOT":0},{"OBJECT_NAME":"VELOX-I","OBJECT_ID":"2014-034E","EPOCH":"2026-03-09T23:01:40.038816","MEAN_MOTION":14.96870815,"ECCENTRICITY":0.00060607,"INCLINATION":98.2625,"RA_OF_ASC_NODE":328.3713,"ARG_OF_PERICENTER":237.6745,"MEAN_ANOMALY":122.3888,"EPHEMERIS_TYPE":0,"CLASSIFICATION_TYPE":"U","NORAD_CAT_ID":40057,"ELEMENT_SET_NO":999,"REV_AT_EPOCH":63175,"BSTAR":0.00054396772,"MEAN_MOTION_DOT":6.179e-5,"MEAN_MOTION_DDOT":0}]
